CCSDS_OMM_VERS = 2.0
CREATION_DATE  = 
ORIGINATOR     = 

OBJECT_NAME    = ALOS (DAICHI)
OBJECT_ID      = 2006-002A
CENTER_NAME    = EARTH
REF_FRAME      = TEME
TIME_SYSTEM    = UTC
MEAN_ELEMENT_THEORY = SGP/SGP4

EPOCH          = 2025-12-17T17:37:14.152512
MEAN_MOTION    = 14.69501788
ECCENTRICITY   = .00013612
INCLINATION    = 98.1098
RA_OF_ASC_NODE = 303.1864
ARG_OF_PERICENTER = 113.5739
MEAN_ANOMALY   = 246.5610

EPHEMERIS_TYPE = 0
CLASSIFICATION_TYPE = U
NORAD_CAT_ID   = 28931
ELEMENT_SET_NO = 999
REV_AT_EPOCH   = 6144
BSTAR          = .19545051E-3
MEAN_MOTION_DOT = .111E-4
MEAN_MOTION_DDOT = 0

CCSDS_OMM_VERS = 2.0
CREATION_DATE  = 
ORIGINATOR     = 

OBJECT_NAME    = H-2A R/B
OBJECT_ID      = 2006-002B
CENTER_NAME    = EARTH
REF_FRAME      = TEME
TIME_SYSTEM    = UTC
MEAN_ELEMENT_THEORY = SGP/SGP4

EPOCH          = 2025-12-19T03:03:36.987552
MEAN_MOTION    = 15.14694451
ECCENTRICITY   = .0054657
INCLINATION    = 98.2321
RA_OF_ASC_NODE = 128.3982
ARG_OF_PERICENTER = 154.7707
MEAN_ANOMALY   = 205.6211

EPHEMERIS_TYPE = 0
CLASSIFICATION_TYPE = U
NORAD_CAT_ID   = 28932
ELEMENT_SET_NO = 999
REV_AT_EPOCH   = 8223
BSTAR          = .46406324E-3
MEAN_MOTION_DOT = .8842E-4
MEAN_MOTION_DDOT = 0

CCSDS_OMM_VERS = 2.0
CREATION_DATE  = 
ORIGINATOR     = 

OBJECT_NAME    = RESURS-DK 1
OBJECT_ID      = 2006-021A
CENTER_NAME    = EARTH
REF_FRAME      = TEME
TIME_SYSTEM    = UTC
MEAN_ELEMENT_THEORY = SGP/SGP4

EPOCH          = 2025-12-19T17:02:08.742624
MEAN_MOTION    = 15.12197286
ECCENTRICITY   = .0006864
INCLINATION    = 69.9339
RA_OF_ASC_NODE = 83.8253
ARG_OF_PERICENTER = 253.3624
MEAN_ANOMALY   = 106.6789

EPHEMERIS_TYPE = 0
CLASSIFICATION_TYPE = U
NORAD_CAT_ID   = 29228
ELEMENT_SET_NO = 999
REV_AT_EPOCH   = 7543
BSTAR          = .11373E-3
MEAN_MOTION_DOT = .1861E-4
MEAN_MOTION_DDOT = 0

CCSDS_OMM_VERS = 2.0
CREATION_DATE  = 
ORIGINATOR     = 

OBJECT_NAME    = CZ-4B R/B
OBJECT_ID      = 2006-046C
CENTER_NAME    = EARTH
REF_FRAME      = TEME
TIME_SYSTEM    = UTC
MEAN_ELEMENT_THEORY = SGP/SGP4

EPOCH          = 2025-12-19T08:52:51.308256
MEAN_MOTION    = 15.15935247
ECCENTRICITY   = .0033835
INCLINATION    = 97.5726
RA_OF_ASC_NODE = 33.4909
ARG_OF_PERICENTER = 183.2500
MEAN_ANOMALY   = 176.8518

EPHEMERIS_TYPE = 0
CLASSIFICATION_TYPE = U
NORAD_CAT_ID   = 29507
ELEMENT_SET_NO = 999
REV_AT_EPOCH   = 4787
BSTAR          = .17662E-3
MEAN_MOTION_DOT = .3364E-4
MEAN_MOTION_DDOT = 0

CCSDS_OMM_VERS = 2.0
CREATION_DATE  = 
ORIGINATOR     = 

OBJECT_NAME    = CZ-2C R/B
OBJECT_ID      = 2007-010B
CENTER_NAME    = EARTH
REF_FRAME      = TEME
TIME_SYSTEM    = UTC
MEAN_ELEMENT_THEORY = SGP/SGP4

EPOCH          = 2025-12-19T20:01:33.768768
MEAN_MOTION    = 14.20212534
ECCENTRICITY   = .00594
INCLINATION    = 98.3977
RA_OF_ASC_NODE = 106.1282
ARG_OF_PERICENTER = 165.3654
MEAN_ANOMALY   = 194.9261

EPHEMERIS_TYPE = 0
CLASSIFICATION_TYPE = U
NORAD_CAT_ID   = 31114
ELEMENT_SET_NO = 999
REV_AT_EPOCH   = 96838
BSTAR          = .608E-4
MEAN_MOTION_DOT = .91E-6
MEAN_MOTION_DDOT = 0

CCSDS_OMM_VERS = 2.0
CREATION_DATE  = 
ORIGINATOR     = 

OBJECT_NAME    = COSMO-SKYMED 1
OBJECT_ID      = 2007-023A
CENTER_NAME    = EARTH
REF_FRAME      = TEME
TIME_SYSTEM    = UTC
MEAN_ELEMENT_THEORY = SGP/SGP4

EPOCH          = 2025-12-19T19:29:34.955232
MEAN_MOTION    = 14.95817648
ECCENTRICITY   = .0001581
INCLINATION    = 97.8836
RA_OF_ASC_NODE = 179.2577
ARG_OF_PERICENTER = 85.3043
MEAN_ANOMALY   = 274.8358

EPHEMERIS_TYPE = 0
CLASSIFICATION_TYPE = U
NORAD_CAT_ID   = 31598
ELEMENT_SET_NO = 999
REV_AT_EPOCH   = 296
BSTAR          = .27447E-3
MEAN_MOTION_DOT = .3005E-4
MEAN_MOTION_DDOT = 0

CCSDS_OMM_VERS = 2.0
CREATION_DATE  = 
ORIGINATOR     = 

OBJECT_NAME    = COSMOS 2428
OBJECT_ID      = 2007-029A
CENTER_NAME    = EARTH
REF_FRAME      = TEME
TIME_SYSTEM    = UTC
MEAN_ELEMENT_THEORY = SGP/SGP4

EPOCH          = 2025-12-19T17:56:11.065056
MEAN_MOTION    = 14.12892275
ECCENTRICITY   = .0004069
INCLINATION    = 70.9365
RA_OF_ASC_NODE = 11.1665
ARG_OF_PERICENTER = 13.6571
MEAN_ANOMALY   = 346.4659

EPHEMERIS_TYPE = 0
CLASSIFICATION_TYPE = U
NORAD_CAT_ID   = 31792
ELEMENT_SET_NO = 999
REV_AT_EPOCH   = 95280
BSTAR          = .10621E-3
MEAN_MOTION_DOT = .15E-5
MEAN_MOTION_DDOT = 0

CCSDS_OMM_VERS = 2.0
CREATION_DATE  = 
ORIGINATOR     = 

OBJECT_NAME    = SL-16 R/B
OBJECT_ID      = 2007-029B
CENTER_NAME    = EARTH
REF_FRAME      = TEME
TIME_SYSTEM    = UTC
MEAN_ELEMENT_THEORY = SGP/SGP4

EPOCH          = 2025-12-19T09:34:09.732864
MEAN_MOTION    = 14.14815776
ECCENTRICITY   = .0001944
INCLINATION    = 70.9756
RA_OF_ASC_NODE = 341.1595
ARG_OF_PERICENTER = 262.0420
MEAN_ANOMALY   = 209.9938

EPHEMERIS_TYPE = 0
CLASSIFICATION_TYPE = U
NORAD_CAT_ID   = 31793
ELEMENT_SET_NO = 999
REV_AT_EPOCH   = 95401
BSTAR          = .11085E-3
MEAN_MOTION_DOT = .166E-5
MEAN_MOTION_DDOT = 0

CCSDS_OMM_VERS = 2.0
CREATION_DATE  = 
ORIGINATOR     = 

OBJECT_NAME    = KORONAS-FOTON
OBJECT_ID      = 2009-003A
CENTER_NAME    = EARTH
REF_FRAME      = TEME
TIME_SYSTEM    = UTC
MEAN_ELEMENT_THEORY = SGP/SGP4

EPOCH          = 2025-12-19T18:23:18.490272
MEAN_MOTION    = 15.41331364
ECCENTRICITY   = .0013424
INCLINATION    = 82.4303
RA_OF_ASC_NODE = 358.8240
ARG_OF_PERICENTER = 86.5085
MEAN_ANOMALY   = 273.7697

EPHEMERIS_TYPE = 0
CLASSIFICATION_TYPE = U
NORAD_CAT_ID   = 33504
ELEMENT_SET_NO = 999
REV_AT_EPOCH   = 93342
BSTAR          = .17357E-3
MEAN_MOTION_DOT = .7294E-4
MEAN_MOTION_DDOT = 0

CCSDS_OMM_VERS = 2.0
CREATION_DATE  = 
ORIGINATOR     = 

OBJECT_NAME    = CZ-2C R/B
OBJECT_ID      = 2011-030B
CENTER_NAME    = EARTH
REF_FRAME      = TEME
TIME_SYSTEM    = UTC
MEAN_ELEMENT_THEORY = SGP/SGP4

EPOCH          = 2025-12-19T15:24:09.503424
MEAN_MOTION    = 14.80921965
ECCENTRICITY   = .0051376
INCLINATION    = 97.8423
RA_OF_ASC_NODE = 307.5959
ARG_OF_PERICENTER = 250.5071
MEAN_ANOMALY   = 282.8404

EPHEMERIS_TYPE = 0
CLASSIFICATION_TYPE = U
NORAD_CAT_ID   = 37731
ELEMENT_SET_NO = 999
REV_AT_EPOCH   = 77824
BSTAR          = .13276E-3
MEAN_MOTION_DOT = .995E-5
MEAN_MOTION_DDOT = 0

CCSDS_OMM_VERS = 2.0
CREATION_DATE  = 
ORIGINATOR     = 

OBJECT_NAME    = H-2A R/B
OBJECT_ID      = 2012-025E
CENTER_NAME    = EARTH
REF_FRAME      = TEME
TIME_SYSTEM    = UTC
MEAN_ELEMENT_THEORY = SGP/SGP4

EPOCH          = 2025-12-19T11:15:24.865920
MEAN_MOTION    = 14.94486942
ECCENTRICITY   = .0044178
INCLINATION    = 98.4606
RA_OF_ASC_NODE = 309.2182
ARG_OF_PERICENTER = 213.9012
MEAN_ANOMALY   = 145.9381

EPHEMERIS_TYPE = 0
CLASSIFICATION_TYPE = U
NORAD_CAT_ID   = 38341
ELEMENT_SET_NO = 999
REV_AT_EPOCH   = 73623
BSTAR          = .15526E-3
MEAN_MOTION_DOT = .1638E-4
MEAN_MOTION_DDOT = 0

CCSDS_OMM_VERS = 2.0
CREATION_DATE  = 
ORIGINATOR     = 

OBJECT_NAME    = SHIJIAN-16 (SJ-16)
OBJECT_ID      = 2013-057A
CENTER_NAME    = EARTH
REF_FRAME      = TEME
TIME_SYSTEM    = UTC
MEAN_ELEMENT_THEORY = SGP/SGP4

EPOCH          = 2025-12-19T21:52:12.171936
MEAN_MOTION    = 14.92002499
ECCENTRICITY   = .0017827
INCLINATION    = 74.9727
RA_OF_ASC_NODE = 336.0850
ARG_OF_PERICENTER = 303.1417
MEAN_ANOMALY   = 56.8060

EPHEMERIS_TYPE = 0
CLASSIFICATION_TYPE = U
NORAD_CAT_ID   = 39358
ELEMENT_SET_NO = 999
REV_AT_EPOCH   = 65960
BSTAR          = .12494E-3
MEAN_MOTION_DOT = .1241E-4
MEAN_MOTION_DDOT = 0

